ES'HAIL 2               
1 43700U 18090A   26198.74055257  .00000135  00000+0  00000+0 0  9990
2 43700   0.0138  73.7247 0002319  84.7094  69.4946  1.00272417 27983
GEO-KOMPSAT-2A          
1 43823U 18100A   26198.50716203 -.00000353  00000+0  00000+0 0  9990
2 43823   0.0319 166.1558 0002281 290.0894 149.9033  1.00273401 27930
GSAT-11                 
1 43824U 18100B   26198.63903035 -.00000086  00000+0  00000+0 0  9999
2 43824   0.0464 244.1774 0007759 214.0203 141.3053  1.00271391 27781
GSAT-7A                 
1 43864U 18105A   26198.63677700  .00000017  00000+0  00000+0 0  9998
2 43864   0.0908  91.2593 0001766  20.6601 115.5140  1.00271947 27757
COSMOS 2533             
1 43867U 18107A   26198.63816368 -.00000046  00000+0  00000+0 0  9991
2 43867   0.0349 113.4124 0000186 112.7153   9.0497  1.00266317 27753
TJS-3                   
1 43874U 18110A   26198.77330088 -.00000226  00000+0  00000+0 0  9998
2 43874   2.6218  80.1232 0002606  87.4525 194.6197  1.00271462 27726
ZHONGXING-2D            
1 43920U 19001A   26198.65008718  .00000000  00000+0  00000+0 0  9998
2 43920   0.0166 240.6136 0000532 108.5212 310.3707  1.00272728 54384
HELLAS-SAT 4 & SGS-1    
1 44034U 19007A   26198.34836456  .00000143  00000+0  00000+0 0  9993
2 44034   0.0683 123.8619 0005717  24.0009 311.7169  1.00272201 27674
GSAT-31                 
1 44035U 19007B   26198.63383034  .00000116  00000+0  00000+0 0  9995
2 44035   0.0209 100.3967 0000791 123.5060 347.5893  1.00272190 27278
NUSANTARA SATU          
1 44048U 19009A   26198.65329384 -.00000244  00000+0  00000+0 0  9994
2 44048   0.0312 119.7538 0004748  11.3564 185.5443  1.00271075 27074
ZHONGXING-6C            
1 44067U 19012A   26198.65017384 -.00000344  00000+0  00000+0 0  9994
2 44067   0.0518  62.9961 0014898 351.3516 245.6135  1.00273787 27048
WGS 10 (USA 291)        
1 44071U 19014A   26198.19419797  .00000037  00000+0  00000+0 0  9992
2 44071   0.0148  64.5861 0000115 214.5949 146.0340  1.00271803 26910
TIANLIAN 2-01           
1 44076U 19017A   26198.65056720 -.00000116  00000+0  00000+0 0  9993
2 44076   0.6168  83.0556 0001556  77.8282  85.7945  1.00271039 26955
ARABSAT-6A              
1 44186U 19021A   26198.63036755  .00000144  00000+0  00000+0 0  9994
2 44186   0.0458  15.2428 0001903 245.4271 292.2137  1.00274466 26466
BEIDOU-3 IGSO-1         
1 44204U 19023A   26197.32034861 -.00000209  00000+0  00000+0 0  9991
2 44204  58.7368  37.3490 0025911 224.0979 267.2124  1.00282972  7507
BEIDOU-2 G8             
1 44231U 19027A   26198.65294719 -.00000257  00000+0  00000+0 0  9995
2 44231   1.7336  74.5037 0009663 282.1860 318.3603  1.00270931 26389
YAMAL 601               
1 44307U 19031A   26198.63409034  .00000110  00000+0  00000+0 0  9997
2 44307   0.0161  71.7203 0002383  39.0253 101.9738  1.00272731 26231
AT&T T-16               
1 44333U 19034A   26198.46182722 -.00000125  00000+0  00000+0 0  9999
2 44333   0.0143  73.6211 0000663 281.6891   5.3659  1.00274290 25939
EUTELSAT 7C             
1 44334U 19034B   26198.62577419  .00000039  00000+0  00000+0 0  9992
2 44334   0.0771 181.6395 0003251 280.5217  65.5667  1.00270255  7143
BEIDOU-3 IGSO-2         
1 44337U 19035A   26198.29131494 -.00000132  00000+0  00000+0 0  9993
2 44337  55.2507 158.5979 0039300 216.4251 143.3539  1.00256869 25975
COSMOS 2539             
1 44457U 19048A   26198.75624105  .00000073  00000+0  00000+0 0  9990
2 44457   0.0332 105.9413 0000777  21.1386  92.7284  1.00276824 25536
EDRS-C                  
1 44475U 19049A   26198.65260051 -.00000272  00000+0  00000+0 0  9998
2 44475   0.0132 110.9711 0000961  15.9514 185.9747  1.00271109 25518
INTELSAT 39 (IS-39)     
1 44476U 19049B   26198.73011073  .00000000  00000+0  00000+0 0  9994
2 44476   0.0202  56.5342 0000919 294.5973 269.2072  1.00269532 25434
AMOS-17                 
1 44479U 19050A   26198.62768087  .00000100  00000+0  00000+0 0  9992
2 44479   0.0188 351.5127 0001548 136.4067  50.5036  1.00274750 25491
AEHF-5 (USA 292)        
1 44481U 19051A   26198.64258368 -.00000266  00000+0  00000+0 0  9998
2 44481   1.4290 338.6164 0064893 357.4697 283.7753  1.00273255 25569
EUTELSAT 5 WEST B       
1 44624U 19067A   26198.33821582 -.00000052  00000+0  00000+0 0  9997
2 44624   0.0808 318.1822 0003105 157.3637 296.3630  1.00272406 24731
TJS-4                   
1 44637U 19070A   26198.64085036 -.00000180  00000+0  00000+0 0  9997
2 44637   0.1037 260.3424 0000327  39.3822 309.9927  1.00273799 24842
TIBA-1                  
1 44800U 19080A   26198.56011470  .00000146  00000+0  00000+0 0  9993
2 44800   0.0546  22.0037 0001994 105.1948  45.2870  1.00272296 24368
INMARSAT GX5            
1 44801U 19080B   26198.73346285  .00000065  00000+0  00000+0 0  9998
2 44801   0.0347  10.1438 0002095 117.1633  83.3004  1.00269461  7091
JCSAT-18 (KACIFIC 1)    
1 44868U 19091A   26198.54697394 -.00000211  00000+0  00000+0 0  9996
2 44868   0.0493 237.3313 0000561 333.6354  71.2726  1.00268461 24312
ELEKTRO-L 3             
1 44903U 19095A   26198.65056657 -.00000106  00000+0  00000+0 0  9996
2 44903   0.3336  82.3212 0001378  20.1142 143.2172  1.00271487 24011
SHIJIAN-20 (SJ-20)      
1 44910U 19097A   26198.27675486  .00000124  00000+0  00000+0 0  9990
2 44910   4.9936  74.6938 0015416  57.5827 307.2224  1.00270272 24006
