OBJECT_NAME,OBJECT_ID,EPOCH,MEAN_MOTION,ECCENTRICITY,INCLINATION,RA_OF_ASC_NODE,ARG_OF_PERICENTER,MEAN_ANOMALY,EPHEMERIS_TYPE,CLASSIFICATION_TYPE,NORAD_CAT_ID,ELEMENT_SET_NO,REV_AT_EPOCH,BSTAR,MEAN_MOTION_DOT,MEAN_MOTION_DDOT
ES'HAIL 2,2018-090A,2026-07-17T17:46:23.742048,1.00272417,.0002319,0.0138,73.7247,84.7094,69.4946,0,U,43700,999,2798,0,.135E-5,0
GEO-KOMPSAT-2A,2018-100A,2026-07-17T12:10:18.799392,1.00273401,.0002281,0.0319,166.1558,290.0894,149.9033,0,U,43823,999,2793,0,-.353E-5,0
GSAT-11,2018-100B,2026-07-17T15:20:12.222240,1.00271391,.0007759,0.0464,244.1774,214.0203,141.3053,0,U,43824,999,2778,0,-.86E-6,0
GSAT-7A,2018-105A,2026-07-17T15:16:57.532800,1.00271947,.0001766,0.0908,91.2593,20.6601,115.5140,0,U,43864,999,2775,0,.17E-6,0
COSMOS 2533,2018-107A,2026-07-17T15:18:57.341952,1.00266317,.0000186,0.0349,113.4124,112.7153,9.0497,0,U,43867,999,2775,0,-.46E-6,0
TJS-3,2018-110A,2026-07-17T18:33:33.196032,1.00271462,.0002606,2.6218,80.1232,87.4525,194.6197,0,U,43874,999,2772,0,-.226E-5,0
ZHONGXING-2D,2019-001A,2026-07-17T15:36:07.532352,1.00272728,.0000532,0.0166,240.6136,108.5212,310.3707,0,U,43920,999,5438,0,0,0
HELLAS-SAT 4 & SGS-1,2019-007A,2026-07-17T08:21:38.697984,1.00272201,.0005717,0.0683,123.8619,24.0009,311.7169,0,U,44034,999,2767,0,.143E-5,0
GSAT-31,2019-007B,2026-07-17T15:12:42.941376,1.00272190,.0000791,0.0209,100.3967,123.5060,347.5893,0,U,44035,999,2727,0,.116E-5,0
NUSANTARA SATU,2019-009A,2026-07-17T15:40:44.587776,1.00271075,.0004748,0.0312,119.7538,11.3564,185.5443,0,U,44048,999,2707,0,-.244E-5,0
ZHONGXING-6C,2019-012A,2026-07-17T15:36:15.019776,1.00273787,.0014898,0.0518,62.9961,351.3516,245.6135,0,U,44067,999,2704,0,-.344E-5,0
WGS 10 (USA 291),2019-014A,2026-07-17T04:39:38.704608,1.00271803,.00001154,0.0148,64.5861,214.5949,146.0340,0,U,44071,999,2691,0,.37E-6,0
TIANLIAN 2-01,2019-017A,2026-07-17T15:36:49.006080,1.00271039,.0001556,0.6168,83.0556,77.8282,85.7945,0,U,44076,999,2695,0,-.116E-5,0
ARABSAT-6A,2019-021A,2026-07-17T15:07:43.756320,1.00274466,.0001903,0.0458,15.2428,245.4271,292.2137,0,U,44186,999,2646,0,.144E-5,0
BEIDOU-3 IGSO-1,2019-023A,2026-07-16T07:41:18.119904,1.00282972,.00259114,58.7368,37.3490,224.0979,267.2124,0,U,44204,999,750,0,-.209E-5,0
BEIDOU-2 G8,2019-027A,2026-07-17T15:40:14.637216,1.00270931,.0009663,1.7336,74.5037,282.1860,318.3603,0,U,44231,999,2638,0,-.257E-5,0
YAMAL 601,2019-031A,2026-07-17T15:13:05.405376,1.00272731,.0002383,0.0161,71.7203,39.0253,101.9738,0,U,44307,999,2623,0,.11E-5,0
AT&T T-16,2019-034A,2026-07-17T11:05:01.871808,1.00274290,.0000663,0.0143,73.6211,281.6891,5.3659,0,U,44333,999,2593,0,-.125E-5,0
EUTELSAT 7C,2019-034B,2026-07-17T15:01:06.890016,1.00270255,.0003251,0.0771,181.6395,280.5217,65.5667,0,U,44334,999,714,0,.39E-6,0
BEIDOU-3 IGSO-2,2019-035A,2026-07-17T06:59:29.610816,1.00256869,.00393,55.2507,158.5979,216.4251,143.3539,0,U,44337,999,2597,0,-.132E-5,0
COSMOS 2539,2019-048A,2026-07-17T18:08:59.226720,1.00276824,.0000777,0.0332,105.9413,21.1386,92.7284,0,U,44457,999,2553,0,.73E-6,0
EDRS-C,2019-049A,2026-07-17T15:39:44.684064,1.00271109,.0000961,0.0132,110.9711,15.9514,185.9747,0,U,44475,999,2551,0,-.272E-5,0
INTELSAT 39 (IS-39),2019-049B,2026-07-17T17:31:21.567072,1.00269532,.0000919,0.0202,56.5342,294.5973,269.2072,0,U,44476,999,2543,0,0,0
AMOS-17,2019-050A,2026-07-17T15:03:51.627168,1.00274750,.0001548,0.0188,351.5127,136.4067,50.5036,0,U,44479,999,2549,0,.1E-5,0
AEHF-5 (USA 292),2019-051A,2026-07-17T15:25:19.229952,1.00273255,.0064893,1.4290,338.6164,357.4697,283.7753,0,U,44481,999,2556,0,-.266E-5,0
EUTELSAT 5 WEST B,2019-067A,2026-07-17T08:07:01.846848,1.00272406,.0003105,0.0808,318.1822,157.3637,296.3630,0,U,44624,999,2473,0,-.52E-6,0
TJS-4,2019-070A,2026-07-17T15:22:49.471104,1.00273799,.0000327,0.1037,260.3424,39.3822,309.9927,0,U,44637,999,2484,0,-.18E-5,0
TIBA-1,2019-080A,2026-07-17T13:26:33.910080,1.00272296,.0001994,0.0546,22.0037,105.1948,45.2870,0,U,44800,999,2436,0,.146E-5,0
INMARSAT GX5,2019-080B,2026-07-17T17:36:11.190240,1.00269461,.0002095,0.0347,10.1438,117.1633,83.3004,0,U,44801,999,709,0,.65E-6,0
JCSAT-18 (KACIFIC 1),2019-091A,2026-07-17T13:07:38.548416,1.00268461,.0000561,0.0493,237.3313,333.6354,71.2726,0,U,44868,999,2431,0,-.211E-5,0
ELEKTRO-L 3,2019-095A,2026-07-17T15:36:48.951648,1.00271487,.0001378,0.3336,82.3212,20.1142,143.2172,0,U,44903,999,2401,0,-.106E-5,0
SHIJIAN-20 (SJ-20),2019-097A,2026-07-17T06:38:31.619904,1.00270272,.0015416,4.9936,74.6938,57.5827,307.2224,0,U,44910,999,2400,0,.124E-5,0
